NORAD_CAT_ID,OBJECT_NAME,OBJECT_TYPE,EPOCH,MEAN_MOTION,ECCENTRICITY,INCLINATION,RA_OF_ASC_NODE,ARG_OF_PERICENTER,MEAN_ANOMALY,BSTAR,MEAN_MOTION_DOT,MEAN_MOTION_DDOT,TLE_LINE0,TLE_LINE1,TLE_LINE2,SEMIMAJOR_AXIS,PERIOD,APOGEE,PERIGEE,DECAYED
55944.0,STARLINK-5926,PAYLOAD,2024-02-14 08:52:46,14.98332983,0.0002531,70.0018,26.2351,253.3048,106.7834,0.00022484,2.591e-05,0.0,0 STARLINK-5926,1 55944U 23037AG  24045.36998306  .00002591  00000-0  22484-3 0  9991,2 55944  70.0018  26.2351 0002531 253.3048 106.7834 14.98332983 50992,6950.184,96.107,573.808,570.29,0.0
55944.0,STARLINK-5926,PAYLOAD,2024-02-14 15:17:19,14.98329175,0.0002241,70.0039,25.5591,286.5309,73.5604,4.3039e-05,4.21e-06,0.0,0 STARLINK-5926,1 55944U 23037AG  24045.63703253  .00000421  00000-0  43039-4 0  9996,2 55944  70.0039  25.5591 0002241 286.5309  73.5604 14.98329175 51377,6950.195,96.107,573.618,570.503,0.0
55944.0,STARLINK-5926,PAYLOAD,2024-02-14 21:41:51,14.98333591,0.0002086,70.004,24.8858,243.1025,116.9921,-3.7333e-05,-5.38e-06,0.0,0 STARLINK-5926,1 55944U 23037AG  24045.90406717 -.00000538  00000-0 -37333-4 0  9992,2 55944  70.0040  24.8858 0002086 243.1025 116.9921 14.98333591 51076,6950.182,96.107,573.497,570.597,0.0
55944.0,STARLINK-5926,PAYLOAD,2024-02-15 08:54:48,14.98333626,0.0002607,70.0014,23.7072,265.565,94.5211,-0.00014124,-1.778e-05,0.0,0 STARLINK-5926,1 55944U 23037AG  24046.37138892 -.00001778  00000-0 -14124-3 0  9999,2 55944  70.0014  23.7072 0002607 265.5650  94.5211 14.98333626 51144,6950.182,96.107,573.859,570.235,0.0
55944.0,STARLINK-5926,PAYLOAD,2024-02-15 15:19:20,14.98338279,0.0002623,70.0018,23.034,269.2165,90.8694,-0.00018302,-2.276e-05,0.0,0 STARLINK-5926,1 55944U 23037AG  24046.63842617 -.00002276  00000-0 -18302-3 0  9991,2 55944  70.0018  23.0340 0002623 269.2165  90.8694 14.98338279 51524,6950.167,96.106,573.855,570.209,0.0
55944.0,STARLINK-5926,PAYLOAD,2024-02-16 07:20:40,14.98322116,0.0002885,70.0012,21.3505,262.8649,97.2182,0.00023693,2.735e-05,0.0,0 STARLINK-5926,1 55944U 23037AG  24047.30602225  .00002735  00000-0  23693-3 0  9992,2 55944  70.0012  21.3505 0002885 262.8649  97.2182 14.98322116 51287,6950.217,96.108,574.087,570.077,0.0
55944.0,STARLINK-5926,PAYLOAD,2024-02-17 04:10:25,14.98323905,0.000295,70.0013,19.1623,267.2793,92.8028,5.7941e-05,5.98e-06,0.0,0 STARLINK-5926,1 55944U 23037AG  24048.17390550  .00000598  00000-0  57941-4 0  9992,2 55944  70.0013  19.1623 0002950 267.2793  92.8028 14.98323905 51755,6950.212,96.107,574.127,570.026,0.0
55944.0,STARLINK-5926,PAYLOAD,2024-02-17 07:22:41,14.98324653,0.0002795,70.0016,18.8255,265.2321,94.8519,6.0419e-05,6.28e-06,0.0,0 STARLINK-5926,1 55944U 23037AG  24048.30742545  .00000628  00000-0  60419-4 0  9990,2 55944  70.0016  18.8255 0002795 265.2321  94.8519 14.98324653 51430,6950.209,96.107,574.017,570.132,0.0
55944.0,STARLINK-5926,PAYLOAD,2024-02-17 15:23:21,14.98322405,0.0002997,70.001,17.9844,268.6509,91.4306,0.0001475,1.667e-05,0.0,0 STARLINK-5926,1 55944U 23037AG  24048.64122480  .00001667  00000-0  14750-3 0  9997,2 55944  70.0010  17.9844 0002997 268.6509  91.4306 14.98322405 51482,6950.216,96.107,574.164,569.998,0.0
55944.0,STARLINK-5926,PAYLOAD,2024-02-18 04:12:26,14.98330126,0.0003047,70.001,16.6381,267.194,92.887,-4.7884e-05,-6.64e-06,0.0,0 STARLINK-5926,1 55944U 23037AG  24049.17530474 -.00000664  00000-0 -47884-4 0  9995,2 55944  70.0010  16.6381 0003047 267.1940  92.8870 14.98330126 51901,6950.193,96.107,574.175,569.94,0.0
55944.0,STARLINK-5926,PAYLOAD,2024-02-18 07:24:42,14.98335152,0.0002915,70.0012,16.3011,264.661,95.4216,2.3486e-05,1.87e-06,0.0,0 STARLINK-5926,1 55944U 23037AG  24049.30881956  .00000187  00000-0  23486-4 0  9994,2 55944  70.0012  16.3011 0002915 264.6610  95.4216 14.98335152 51580,6950.177,96.107,574.068,570.016,0.0
55944.0,STARLINK-5926,PAYLOAD,2024-02-18 15:25:22,14.98336932,0.0003123,70.001,15.4584,266.8487,93.2315,-1.8445e-05,-3.13e-06,0.0,0 STARLINK-5926,1 55944U 23037AG  24049.64261762 -.00000313  00000-0 -18445-4 0  9990,2 55944  70.0010  15.4584 0003123 266.8487  93.2315 14.98336932 51977,6950.171,96.107,574.207,569.866,0.0
55944.0,STARLINK-5926,PAYLOAD,2024-02-18 21:49:54,14.98321985,0.0002818,70.0011,14.7851,263.3146,96.7692,0.00018117,2.069e-05,0.0,0 STARLINK-5926,1 55944U 23037AG  24049.90966116  .00002069  00000-0  18117-3 0  9997,2 55944  70.0011  14.7851 0002818 263.3146  96.7692 14.98321985 51676,6950.218,96.108,574.041,570.124,0.0
55944.0,STARLINK-5926,PAYLOAD,2024-02-19 07:26:42,14.98336562,0.0003048,70.0011,13.7758,269.9726,90.1083,7.2176e-05,7.68e-06,0.0,0 STARLINK-5926,1 55944U 23037AG  24050.31021566  .00000768  00000-0  72176-4 0  9995,2 55944  70.0011  13.7758 0003048 269.9726  90.1083 14.98336562 51739,6950.173,96.107,574.156,569.919,0.0
55944.0,STARLINK-5926,PAYLOAD,2024-02-19 20:15:48,14.98326647,0.000286,70.0018,12.4285,270.9304,89.1527,-7.7015e-05,-1.012e-05,0.0,0 STARLINK-5926,1 55944U 23037AG  24050.84430632 -.00001012  00000-0 -77015-4 0  9993,2 55944  70.0018  12.4285 0002860 270.9304  89.1527 14.98326647 52153,6950.203,96.107,574.056,570.081,0.0
55944.0,STARLINK-5926,PAYLOAD,2024-02-19 21:51:56,14.98323551,0.0002963,70.0016,12.2603,270.0555,90.0265,-5.3692e-06,-1.57e-06,0.0,0 STARLINK-5926,1 55944U 23037AG  24050.91106595 -.00000157  00000-0 -53692-5 0  9994,2 55944  70.0016  12.2603 0002963 270.0555  90.0265 14.98323551 51820,6950.213,96.107,574.137,570.018,0.0
55944.0,STARLINK-5926,PAYLOAD,2024-02-20 07:28:44,14.98327518,0.0002575,70.0023,11.2523,260.654,99.4328,-3.7058e-05,-5.35e-06,0.0,0 STARLINK-5926,1 55944U 23037AG  24051.31162526 -.00000535  00000-0 -37058-4 0  9992,2 55944  70.0023  11.2523 0002575 260.6540  99.4328 14.98327518 51882,6950.201,96.107,573.855,570.276,0.0
55944.0,STARLINK-5926,PAYLOAD,2024-02-20 23:30:04,14.98330934,0.0002724,70.0024,9.5691,271.0232,89.0615,2.5929e-05,2.16e-06,0.0,0 STARLINK-5926,1 55944U 23037AG  24051.97922139  .00000216  00000-0  25929-4 0  9996,2 55944  70.0024   9.5691 0002724 271.0232  89.0615 14.98330934 51980,6950.19,96.107,573.948,570.162,0.0
55944.0,STARLINK-5926,PAYLOAD,2024-02-21 04:18:28,14.98333547,0.0002561,70.0024,9.0648,264.2763,95.8104,3.1418e-05,2.82e-06,0.0,0 STARLINK-5926,1 55944U 23037AG  24052.17949919  .00000282  00000-0  31418-4 0  9997,2 55944  70.0024   9.0648 0002561 264.2763  95.8104 14.98333547 52352,6950.182,96.107,573.827,570.267,0.0
55944.0,STARLINK-5926,PAYLOAD,2024-02-21 05:54:36,14.98334371,0.0002484,70.0024,8.8962,265.294,94.7935,3.1771e-05,2.86e-06,0.0,0 STARLINK-5926,1 55944U 23037AG  24052.24625868  .00000286  00000-0  31771-4 0  9995,2 55944  70.0024   8.8962 0002484 265.2940  94.7935 14.98334371 52020,6950.179,96.107,573.771,570.318,0.0
55944.0,STARLINK-5926,PAYLOAD,2024-02-21 21:55:57,14.98343207,0.0002413,70.0024,7.2139,263.0083,97.0801,-0.00022742,-2.806e-05,0.0,0 STARLINK-5926,1 55944U 23037AG  24052.91386106 -.00002806  00000-0 -22742-3 0  9997,2 55944  70.0024   7.2139 0002413 263.0083  97.0801 14.98343207 52122,6950.152,96.106,573.694,570.34,0.0
55944.0,STARLINK-5926,PAYLOAD,2024-02-22 04:20:30,14.9832561,0.0002608,70.0024,6.5403,262.0408,98.0455,4.3617e-05,4.27e-06,0.0,0 STARLINK-5926,1 55944U 23037AG  24053.18090339  .00000427  00000-0  43617-4 0  9997,2 55944  70.0024   6.5403 0002608 262.0408  98.0455 14.98325610 52500,6950.206,96.107,573.884,570.259,0.0
55944.0,STARLINK-5926,PAYLOAD,2024-02-22 13:57:17,14.98360239,0.0002407,70.0031,5.527,277.4053,82.6833,-0.00060702,-7.334e-05,0.0,0 STARLINK-5926,1 55944U 23037AG  24053.58145685 -.00007334  00000-0 -60702-3 0  9995,2 55944  70.0031   5.5270 0002407 277.4053  82.6833 14.98360239 52226,6950.099,96.105,573.637,570.291,0.0
55944.0,STARLINK-5926,PAYLOAD,2024-02-22 21:57:58,14.9833771,0.0002688,70.0018,4.6846,263.0498,97.0356,-0.00016995,-2.121e-05,0.0,0 STARLINK-5926,1 55944U 23037AG  24053.91526306 -.00002121  00000-0 -16995-3 0  9999,2 55944  70.0018   4.6846 0002688 263.0498  97.0356 14.98337710 52278,6950.169,96.107,573.902,570.166,0.0
55944.0,STARLINK-5926,PAYLOAD,2024-02-23 04:22:30,14.98336613,0.0002574,70.0019,4.0118,260.5702,99.5166,-0.00013461,-1.699e-05,0.0,0 STARLINK-5926,1 55944U 23037AG  24054.18230164 -.00001699  00000-0 -13461-3 0  9997,2 55944  70.0019   4.0118 0002574 260.5702  99.5166 14.98336613 52658,6950.172,96.107,573.826,570.248,0.0
55944.0,STARLINK-5926,PAYLOAD,2024-02-23 13:59:19,14.98330063,0.0002545,70.0023,3.0035,267.8307,92.2561,1.7031e-06,-7.3e-07,0.0,0 STARLINK-5926,1 55944U 23037AG  24054.58286250 -.00000073  00000-0  17031-5 0  9991,2 55944  70.0023   3.0035 0002545 267.8307  92.2561 14.98330063 52370,6950.193,96.107,573.827,570.289,0.0
55944.0,STARLINK-5926,PAYLOAD,2024-02-23 21:59:59,14.9832601,0.0002478,70.0022,2.1611,265.7511,94.3365,3.9558e-05,3.79e-06,0.0,0 STARLINK-5926,1 55944U 23037AG  24054.91666377  .00000379  00000-0  39558-4 0  9995,2 55944  70.0022   2.1611 0002478 265.7511  94.3365 14.98326010 52426,6950.205,96.107,573.792,570.348,0.0
55944.0,STARLINK-5926,PAYLOAD,2024-02-24 04:24:32,14.98321576,0.0002667,70.002,1.4878,270.4423,89.643,0.00012698,1.422e-05,0.0,0 STARLINK-5926,1 55944U 23037AG  24055.18370488  .00001422  00000-0  12698-3 0  9995,2 55944  70.0020   1.4878 0002667 270.4423  89.6430 14.98321576 52800,6950.219,96.108,573.938,570.23,0.0
55944.0,STARLINK-5926,PAYLOAD,2024-02-24 14:01:20,14.98328933,0.0002126,70.0033,0.478,273.1771,86.9145,3.3052e-05,3.02e-06,0.0,0 STARLINK-5926,1 55944U 23037AG  24055.58426470  .00000302  00000-0  33052-4 0  9996,2 55944  70.0033   0.4780 0002126 273.1771  86.9145 14.98328933 52527,6950.196,96.107,573.539,570.584,0.0
55944.0,STARLINK-5926,PAYLOAD,2024-02-25 04:26:32,14.98325062,0.000259,70.0022,358.963,269.6668,90.4194,0.00021017,2.415e-05,0.0,0 STARLINK-5926,1 55944U 23037AG  24056.18509976  .00002415  00000-0  21017-3 0  9990,2 55944  70.0022 358.9630 0002590 269.6668  90.4194 14.98325062 52951,6950.208,96.107,573.873,570.273,0.0
